{"type": "FeatureCollection", "features": [ {"type": "Feature", "properties": {"norad_id": 35140, "name": "FENGYUN 1C DEB", "group": "fengyun-1c-debris", "lat": -81.54204161610524, "lon": 47.57678412952368, "alt_km": 788.999858768575, "timestamp": "2025-12-04T07:39:36.421763+00:00", "meta": {"OBJECT_NAME": "FENGYUN 1C DEB", "OBJECT_ID": "1999-025DLU", "EPOCH": "2025-12-03T05:01:54.884064", "MEAN_MOTION": 14.21319408, "ECCENTRICITY": 0.0291319, "INCLINATION": 98.4449, "RA_OF_ASC_NODE": 318.9832, "ARG_OF_PERICENTER": 354.4614, "MEAN_ANOMALY": 5.3364, "EPHEMERIS_TYPE": 0, "CLASSIFICATION_TYPE": "U", "NORAD_CAT_ID": 35140, "ELEMENT_SET_NO": 999, "REV_AT_EPOCH": 87143, "BSTAR": 0.00037772, "MEAN_MOTION_DOT": 1.218e-05, "MEAN_MOTION_DDOT": 0}, "tle": {"line1": "1 35140U 99025DLU 25337.20966301  .00001218  00000+0  37772-3 0  9995", "line2": "2 35140  98.4449 318.9832 0291319 354.4614   5.3364 14.21319408871436"}}, "geometry": {"type": "Point", "coordinates": [47.57678412952368, -81.54204161610524]}}, {"type": "Feature", "properties": {"norad_id": 35142, "name": "FENGYUN 1C DEB", "group": "fengyun-1c-debris", "lat": 58.699802491401165, "lon": -44.486022658972225, "alt_km": 999.4903946763716, "timestamp": "2025-12-04T07:39:36.421772+00:00", "meta": {"OBJECT_NAME": "FENGYUN 1C DEB", "OBJECT_ID": "1999-025DLW", "EPOCH": "2025-12-01T11:02:09.839904", "MEAN_MOTION": 13.9049819, "ECCENTRICITY": 0.0107348, "INCLINATION": 99.0446, "RA_OF_ASC_NODE": 327.9188, "ARG_OF_PERICENTER": 244.9528, "MEAN_ANOMALY": 269.5822, "EPHEMERIS_TYPE": 0, "CLASSIFICATION_TYPE": "U", "NORAD_CAT_ID": 35142, "ELEMENT_SET_NO": 999, "REV_AT_EPOCH": 85532, "BSTAR": 0.00024065741, "MEAN_MOTION_DOT": 2.7e-06, "MEAN_MOTION_DDOT": 0}, "tle": {"line1": "1 35142U 99025DLW 25335.45983611  .00000270  00000+0  24066-3 0  9994", "line2": "2 35142  99.0446 327.9188 0107348 244.9528 269.5822 13.90498190855325"}}, "geometry": {"type": "Point", "coordinates": [-44.486022658972225, 58.699802491401165]}}, {"type": "Feature", "properties": {"norad_id": 35144, "name": "FENGYUN 1C DEB", "group": "fengyun-1c-debris", "lat": 45.42983364162219, "lon": 84.32869280743034, "alt_km": 675.1989200075441, "timestamp": "2025-12-04T07:39:36.421781+00:00", "meta": {"OBJECT_NAME": "FENGYUN 1C DEB", "OBJECT_ID": "1999-025DLY", "EPOCH": "2025-12-03T06:45:32.345568", "MEAN_MOTION": 14.58820087, "ECCENTRICITY": 0.0026407, "INCLINATION": 98.6983, "RA_OF_ASC_NODE": 92.1832, "ARG_OF_PERICENTER": 31.0808, "MEAN_ANOMALY": 329.1946, "EPHEMERIS_TYPE": 0, "CLASSIFICATION_TYPE": "U", "NORAD_CAT_ID": 35144, "ELEMENT_SET_NO": 999, "REV_AT_EPOCH": 65075, "BSTAR": 0.0033726, "MEAN_MOTION_DOT": 0.00015831, "MEAN_MOTION_DDOT": 0}, "tle": {"line1": "1 35144U 99025DLY 25337.28162437  .00015831  00000+0  33726-2 0  9995", "line2": "2 35144  98.6983  92.1832 0026407  31.0808 329.1946 14.58820087650756"}}, "geometry": {"type": "Point", "coordinates": [84.32869280743034, 45.42983364162219]}}, {"type": "Feature", "properties": {"norad_id": 35147, "name": "FENGYUN 1C DEB", "group": "fengyun-1c-debris", "lat": 38.450036592459334, "lon": -122.17717905263741, "alt_km": 643.8732615408708, "timestamp": "2025-12-04T07:39:36.421790+00:00", "meta": {"OBJECT_NAME": "FENGYUN 1C DEB", "OBJECT_ID": "1999-025DMB", "EPOCH": "2025-12-02T22:25:52.541760", "MEAN_MOTION": 14.73679691, "ECCENTRICITY": 0.00276299, "INCLINATION": 99.4887, "RA_OF_ASC_NODE": 48.574, "ARG_OF_PERICENTER": 228.3561, "MEAN_ANOMALY": 131.5277, "EPHEMERIS_TYPE": 0, "CLASSIFICATION_TYPE": "U", "NORAD_CAT_ID": 35147, "ELEMENT_SET_NO": 999, "REV_AT_EPOCH": 74160, "BSTAR": 0.0044096521, "MEAN_MOTION_DOT": 0.00028999, "MEAN_MOTION_DDOT": 0}, "tle": {"line1": "1 35147U 99025DMB 25336.93463590  .00028999  00000+0  44097-2 0  9995", "line2": "2 35147  99.4887  48.5740 0027629 228.3561 131.5277 14.73679691741605"}}, "geometry": {"type": "Point", "coordinates": [-122.17717905263741, 38.450036592459334]}}, {"type": "Feature", "properties": {"norad_id": 35152, "name": "FENGYUN 1C DEB", "group": "fengyun-1c-debris", "lat": -53.17941878520681, "lon": 174.11382600223223, "alt_km": 984.473114824621, "timestamp": "2025-12-04T07:39:36.421799+00:00", "meta": {"OBJECT_NAME": "FENGYUN 1C DEB", "OBJECT_ID": "1999-025DMG", "EPOCH": "2025-11-30T18:26:10.864320", "MEAN_MOTION": 13.76409057, "ECCENTRICITY": 0.01949772, "INCLINATION": 99.8188, "RA_OF_ASC_NODE": 157.0773, "ARG_OF_PERICENTER": 46.4167, "MEAN_ANOMALY": 315.2982, "EPHEMERIS_TYPE": 0, "CLASSIFICATION_TYPE": "U", "NORAD_CAT_ID": 35152, "ELEMENT_SET_NO": 999, "REV_AT_EPOCH": 62028, "BSTAR": 0.00061954414, "MEAN_MOTION_DOT": 6.5e-06, "MEAN_MOTION_DDOT": 0}, "tle": {"line1": "1 35152U 99025DMG 25334.76818130  .00000650  00000+0  61954-3 0  9990", "line2": "2 35152  99.8188 157.0773 0194977  46.4167 315.2982 13.76409057620286"}}, "geometry": {"type": "Point", "coordinates": [174.11382600223223, -53.17941878520681]}}, {"type": "Feature", "properties": {"norad_id": 35153, "name": "FENGYUN 1C DEB", "group": "fengyun-1c-debris", "lat": 74.70720057751151, "lon": 84.27878603785089, "alt_km": 522.7259688291824, "timestamp": "2025-12-04T07:39:36.421808+00:00", "meta": {"OBJECT_NAME": "FENGYUN 1C DEB", "OBJECT_ID": "1999-025DMH", "EPOCH": "2025-12-02T22:36:45.641952", "MEAN_MOTION": 14.73646675, "ECCENTRICITY": 0.01712747, "INCLINATION": 98.9026, "RA_OF_ASC_NODE": 227.7906, "ARG_OF_PERICENTER": 113.6101, "MEAN_ANOMALY": 248.3192, "EPHEMERIS_TYPE": 0, "CLASSIFICATION_TYPE": "U", "NORAD_CAT_ID": 35153, "ELEMENT_SET_NO": 999, "REV_AT_EPOCH": 97073, "BSTAR": 0.00043040739, "MEAN_MOTION_DOT": 3.48e-05, "MEAN_MOTION_DDOT": 0}, "tle": {"line1": "1 35153U 99025DMH 25336.94219493  .00003480  00000+0  43041-3 0  9991", "line2": "2 35153  98.9026 227.7906 0171274 113.6101 248.3192 14.73646675970735"}}, "geometry": {"type": "Point", "coordinates": [84.27878603785089, 74.70720057751151]}}, {"type": "Feature", "properties": {"norad_id": 35154, "name": "FENGYUN 1C DEB", "group": "fengyun-1c-debris", "lat": -79.67787775804959, "lon": -146.46507285540685, "alt_km": 958.1800555352729, "timestamp": "2025-12-04T07:39:36.421817+00:00", "meta": {"OBJECT_NAME": "FENGYUN 1C DEB", "OBJECT_ID": "1999-025DMJ", "EPOCH": "2025-12-03T01:38:45.524544", "MEAN_MOTION": 14.18874698, "ECCENTRICITY": 0.01796882, "INCLINATION": 99.4215, "RA_OF_ASC_NODE": 97.9418, "ARG_OF_PERICENTER": 69.6441, "MEAN_ANOMALY": 292.3936, "EPHEMERIS_TYPE": 0, "CLASSIFICATION_TYPE": "U", "NORAD_CAT_ID": 35154, "ELEMENT_SET_NO": 999, "REV_AT_EPOCH": 64440, "BSTAR": 0.00040648287, "MEAN_MOTION_DOT": 9.44e-06, "MEAN_MOTION_DDOT": 0}, "tle": {"line1": "1 35154U 99025DMJ 25337.06858246  .00000944  00000+0  40648-3 0  9993", "line2": "2 35154  99.4215  97.9418 0179688  69.6441 292.3936 14.18874698644405"}}, "geometry": {"type": "Point", "coordinates": [-146.46507285540685, -79.67787775804959]}}, {"type": "Feature", "properties": {"norad_id": 35155, "name": "FENGYUN 1C DEB", "group": "fengyun-1c-debris", "lat": 15.714051283793442, "lon": -12.082373773197595, "alt_km": 825.2717042336863, "timestamp": "2025-12-04T07:39:36.421826+00:00", "meta": {"OBJECT_NAME": "FENGYUN 1C DEB", "OBJECT_ID": "1999-025DMK", "EPOCH": "2025-12-01T18:40:23.892384", "MEAN_MOTION": 14.19237116, "ECCENTRICITY": 0.00262936, "INCLINATION": 98.5005, "RA_OF_ASC_NODE": 347.8913, "ARG_OF_PERICENTER": 103.4458, "MEAN_ANOMALY": 256.9651, "EPHEMERIS_TYPE": 0, "CLASSIFICATION_TYPE": "U", "NORAD_CAT_ID": 35155, "ELEMENT_SET_NO": 999, "REV_AT_EPOCH": 72558, "BSTAR": 0.00064940785, "MEAN_MOTION_DOT": 1.325e-05, "MEAN_MOTION_DDOT": 0}, "tle": {"line1": "1 35155U 99025DMK 25335.77805431  .00001325  00000+0  64941-3 0  9994", "line2": "2 35155  98.5005 347.8913 0026293 103.4458 256.9651 14.19237116725586"}}, "geometry": {"type": "Point", "coordinates": [-12.082373773197595, 15.714051283793442]}}, {"type": "Feature", "properties": {"norad_id": 35156, "name": "FENGYUN 1C DEB", "group": "fengyun-1c-debris", "lat": -1.9622958372728447, "lon": -34.738751451926404, "alt_km": 886.3801853163941, "timestamp": "2025-12-04T07:39:36.421836+00:00", "meta": {"OBJECT_NAME": "FENGYUN 1C DEB", "OBJECT_ID": "1999-025DML", "EPOCH": "2025-12-03T09:32:20.618304", "MEAN_MOTION": 14.10610073, "ECCENTRICITY": 0.0036093, "INCLINATION": 98.7501, "RA_OF_ASC_NODE": 324.0617, "ARG_OF_PERICENTER": 174.1914, "MEAN_ANOMALY": 185.9683, "EPHEMERIS_TYPE": 0, "CLASSIFICATION_TYPE": "U", "NORAD_CAT_ID": 35156, "ELEMENT_SET_NO": 999, "REV_AT_EPOCH": 63912, "BSTAR": 0.00049263017, "MEAN_MOTION_DOT": 8.41e-06, "MEAN_MOTION_DDOT": 0}, "tle": {"line1": "1 35156U 99025DML 25337.39746086  .00000841  00000+0  49263-3 0  9997", "line2": "2 35156  98.7501 324.0617 0036093 174.1914 185.9683 14.10610073639127"}}, "geometry": {"type": "Point", "coordinates": [-34.738751451926404, -1.9622958372728447]}}, {"type": "Feature", "properties": {"norad_id": 35159, "name": "FENGYUN 1C DEB", "group": "fengyun-1c-debris", "lat": 75.72458311524207, "lon": 15.461946384039218, "alt_km": 738.7826205853571, "timestamp": "2025-12-04T07:39:36.421846+00:00", "meta": {"OBJECT_NAME": "FENGYUN 1C DEB", "OBJECT_ID": "1999-025DMP", "EPOCH": "2025-11-29T04:26:18.851424", "MEAN_MOTION": 14.44874361, "ECCENTRICITY": 0.00122991, "INCLINATION": 98.8433, "RA_OF_ASC_NODE": 47.8452, "ARG_OF_PERICENTER": 209.872, "MEAN_ANOMALY": 177.7068, "EPHEMERIS_TYPE": 0, "CLASSIFICATION_TYPE": "U", "NORAD_CAT_ID": 35159, "ELEMENT_SET_NO": 999, "REV_AT_EPOCH": 61285, "BSTAR": 0.002158088, "MEAN_MOTION_DOT": 7.477e-05, "MEAN_MOTION_DDOT": 0}, "tle": {"line1": "1 35159U 99025DMP 25333.18494041  .00007477  00000+0  21581-2 0  9998", "line2": "2 35159  98.8433  47.8452 0012299 209.8720 177.7068 14.44874361612851"}}, "geometry": {"type": "Point", "coordinates": [15.461946384039218, 75.72458311524207]}}]}